{
    "links": {
        "self": "http://www.neowsapp.com/rest/v1/neo/3304564?api_key=iIulBulltgU6a56xZRHN4H3l9WmuAYTsLGpBGhQ2"
    },
    "id": "3304564",
    "neo_reference_id": "3304564",
    "name": "(2005 WQ3)",
    "designation": "2005 WQ3",
    "nasa_jpl_url": "http://ssd.jpl.nasa.gov/sbdb.cgi?sstr=3304564",
    "absolute_magnitude_h": 24.3,
    "estimated_diameter": {
        "kilometers": {
            "estimated_diameter_min": 0.0366906138,
            "estimated_diameter_max": 0.0820427065
        },
        "meters": {
            "estimated_diameter_min": 36.6906137531,
            "estimated_diameter_max": 82.0427064882
        },
        "miles": {
            "estimated_diameter_min": 0.0227984834,
            "estimated_diameter_max": 0.0509789586
        },
        "feet": {
            "estimated_diameter_min": 120.3760332259,
            "estimated_diameter_max": 269.1689931548
        }
    },
    "is_potentially_hazardous_asteroid": false,
    "close_approach_data": [
        {
            "close_approach_date": "2005-11-18",
            "close_approach_date_full": "2005-Nov-18 15:36",
            "epoch_date_close_approach": 1132328160000,
            "relative_velocity": {
                "kilometers_per_second": "19.0994316563",
                "kilometers_per_hour": "68757.9539626102",
                "miles_per_hour": "42723.5186719341"
            },
            "miss_distance": {
                "astronomical": "0.0239301528",
                "lunar": "9.3088294392",
                "kilometers": "3579899.887654536",
                "miles": "2224446.6412271568"
            },
            "orbiting_body": "Earth"
        }
    ],
    "orbital_data": {
        "orbit_id": "7",
        "orbit_determination_date": "2017-04-06 09:09:47",
        "first_observation_date": "2005-11-25",
        "last_observation_date": "2005-12-01",
        "data_arc_in_days": 6,
        "observations_used": 24,
        "orbit_uncertainty": "9",
        "minimum_orbit_intersection": ".011049",
        "jupiter_tisserand_invariant": "3.864",
        "epoch_osculation": "2453702.5",
        "eccentricity": ".6277058932688532",
        "semi_major_axis": "1.746701480870033",
        "inclination": "11.09150752238719",
        "ascending_node_longitude": "63.1124427880373",
        "orbital_period": "843.1919653090671",
        "perihelion_distance": ".6502866675464805",
        "perihelion_argument": "269.4497316879081",
        "aphelion_distance": "2.843116294193587",
        "perihelion_time": "2453645.062708950024",
        "mean_anomaly": "24.52279626551253",
        "mean_motion": ".4269490398524423",
        "equinox": "J2000",
        "orbit_class": {
            "orbit_class_type": "APO",
            "orbit_class_description": "Near-Earth asteroid orbits which cross the Earth’s orbit similar to that of 1862 Apollo",
            "orbit_class_range": "a (semi-major axis) > 1.0 AU; q (perihelion) < 1.017 AU"
        }
    },
    "is_sentry_object": false
}